OBJECT_NAME,OBJECT_ID,EPOCH,MEAN_MOTION,ECCENTRICITY,INCLINATION,RA_OF_ASC_NODE,ARG_OF_PERICENTER,MEAN_ANOMALY,EPHEMERIS_TYPE,CLASSIFICATION_TYPE,NORAD_CAT_ID,ELEMENT_SET_NO,REV_AT_EPOCH,BSTAR,MEAN_MOTION_DOT,MEAN_MOTION_DDOT
ONEWEB-0365,2021-090N,2026-07-18T19:15:19.249632,13.19726132,.00020816,87.9193,298.6732,102.4173,257.7193,0,U,49291,999,23059,-.11783553E-3,-.34E-6,0
ONEWEB-0366,2021-090P,2026-07-18T17:17:14.455680,13.14502522,.00020271,87.8965,283.4238,98.1673,261.9687,0,U,49292,999,23170,-.58346666E-3,-.204E-5,0
ONEWEB-0367,2021-090Q,2026-07-18T21:43:33.276000,13.20773525,.00022258,87.9181,268.1207,100.5045,259.6339,0,U,49293,999,23401,-.36351483E-4,-.2E-7,0
ONEWEB-0368,2021-090R,2026-07-18T22:55:05.891520,13.20764169,.00018378,87.9176,268.1162,126.6621,233.4681,0,U,49294,999,23517,.22023633E-2,.908E-5,0
ONEWEB-0369,2021-090S,2026-07-18T19:08:29.815584,13.19726545,.00019967,87.9183,298.6793,103.2857,256.8499,0,U,49295,999,23058,-.18686897E-3,-.62E-6,0
ONEWEB-0370,2021-090T,2026-07-18T21:56:54.159936,13.20772191,.00023221,87.9182,268.1180,93.0614,267.0785,0,U,49296,999,23405,-.64183662E-4,-.13E-6,0
ONEWEB-0371,2021-090U,2026-07-18T19:19:52.329792,13.19725315,.00020778,87.9193,298.6724,100.9026,259.2341,0,U,49297,999,23062,-.61835615E-4,-.12E-6,0
ONEWEB-0372,2021-090V,2026-07-18T16:14:52.833696,13.20770555,.00020616,87.9183,268.1675,98.9875,261.1492,0,U,49298,999,23399,.18201278E-3,.87E-6,0
ONEWEB-0373,2021-090W,2026-07-18T16:51:25.928352,13.20771645,.00020465,87.9178,268.1619,96.0017,264.1350,0,U,49299,999,23518,-.81925197E-3,-.32E-5,0
ONEWEB-0374,2021-090X,2026-07-18T22:27:46.947456,13.14503377,.00014941,87.8969,283.3728,90.3647,269.7654,0,U,49300,999,23173,.54949476E-4,.33E-6,0
ONEWEB-0375,2021-090Y,2026-07-18T16:34:27.952320,13.20772282,.00015597,87.9181,268.1565,86.8569,273.2742,0,U,49301,999,23468,-.23300923E-3,-.82E-6,0
ONEWEB-0376,2021-090Z,2026-07-18T19:17:35.029824,13.19725173,.00020923,87.9190,298.6726,105.4424,254.6940,0,U,49302,999,23062,-.78183034E-3,-.3E-5,0
ONEWEB-0377,2021-090AA,2026-07-18T21:42:31.881024,13.20767314,.00024676,87.9223,268.1218,101.2368,258.9043,0,U,49303,999,23470,-.57412837E-3,-.22E-5,0
ONEWEB-0378,2021-090AB,2026-07-18T16:44:23.085888,13.20772012,.00019069,87.9177,268.1605,98.3490,261.7859,0,U,49304,999,23394,.99892397E-4,.54E-6,0
ONEWEB-0379,2021-090AC,2026-07-18T22:20:56.698656,13.14501966,.00018895,87.8968,283.3839,99.6086,260.5257,0,U,49305,999,23173,.20538984E-3,.89E-6,0
ONEWEB-0380,2021-090AD,2026-07-18T19:13:02.833536,13.19726532,.00019712,87.9185,298.6764,95.4050,264.7308,0,U,49306,999,23059,-.21289864E-3,-.72E-6,0
ONEWEB-0381,2021-090AE,2026-07-18T16:10:13.020384,13.20770051,.00018192,87.9182,268.1667,94.5996,265.5345,0,U,49307,999,23398,.24700969E-4,.23E-6,0
ONEWEB-0382,2021-090AF,2026-07-18T21:18:07.116768,13.20772367,.000176,87.9181,268.1176,98.1046,262.0287,0,U,49308,999,23400,.35021797E-4,.27E-6,0
ONEWEB-0383,2021-090AG,2026-07-18T18:32:35.435904,13.14503179,.00018782,87.8969,283.4078,102.1333,258.0008,0,U,49309,999,23174,.17023548E-3,.76E-6,0
ONEWEB-0384,2021-090AH,2026-07-18T06:27:37.366272,13.20813983,.00015849,87.9183,268.2850,100.6947,259.4364,0,U,49310,999,23393,-.1143388E-3,-.34E-6,0
ONEWEB-0385,2021-090AJ,2026-07-18T21:08:24.593280,13.20771108,.00018869,87.9181,268.1247,96.7197,263.4152,0,U,49311,999,23398,.83324711E-4,.47E-6,0
ONEWEB-0386,2021-090AK,2026-07-18T17:54:27.436032,13.20771141,.00018479,87.9187,268.1436,99.1333,261.0009,0,U,49312,999,23398,-.53611966E-3,-.205E-5,0
ONEWEB-0387,2021-090AL,2026-07-18T17:32:39.170688,13.20770644,.0001897,87.9171,268.1647,88.7857,271.3493,0,U,49313,999,23398,.30410825E-3,.137E-5,0
ONEWEB-0388,2021-090AM,2026-07-18T19:06:13.310496,13.19725283,.00018472,87.9186,298.6755,100.5928,259.5413,0,U,49314,999,23058,-.32750888E-3,-.118E-5,0
ONEWEB-0389,2021-132A,2026-07-18T20:44:17.232576,13.17648291,.0001684,87.9148,359.5665,84.7086,275.4238,0,U,50469,999,22225,-.56311117E-3,-.206E-5,0
ONEWEB-0390,2021-132B,2026-07-18T20:46:43.033440,13.17648441,.00020791,87.9149,359.5672,90.4231,269.7139,0,U,50470,999,22225,-.4602598E-3,-.166E-5,0
ONEWEB-0391,2021-132C,2026-07-18T20:49:08.776416,13.17648464,.000189,87.9150,359.5766,68.6027,291.5306,0,U,50471,999,22225,-.46299546E-3,-.167E-5,0
ONEWEB-0392,2021-132D,2026-07-18T19:43:32.528064,13.17648844,.0001713,87.9162,359.5563,83.7821,276.3506,0,U,50472,999,22228,-.42164025E-3,-.151E-5,0
ONEWEB-0393,2021-132E,2026-07-18T20:57:40.655808,13.17647510,.00017647,87.9145,359.5608,89.2917,270.8416,0,U,50473,999,22228,-.27165305E-4,.2E-7,0
ONEWEB-0394,2021-132F,2026-07-18T21:22:07.674240,13.18684982,.00017442,87.9204,329.1385,102.7703,257.3624,0,U,50474,999,22577,.21018194E-3,.96E-6,0
