ONEWEB-0365             
1 49291U 21090N   26199.80230613 -.00000034  00000+0 -11784-3 0  9999
2 49291  87.9193 298.6732 0002081 102.4173 257.7193 13.19726132230598
ONEWEB-0366             
1 49292U 21090P   26199.72030620 -.00000204  00000+0 -58347-3 0  9992
2 49292  87.8965 283.4238 0002027  98.1673 261.9687 13.14502522231703
ONEWEB-0367             
1 49293U 21090Q   26199.90524625 -.00000002  00000+0 -36351-4 0  9994
2 49293  87.9181 268.1207 0002225 100.5045 259.6339 13.20773525234017
ONEWEB-0368             
1 49294U 21090R   26199.95492930  .00000908  00000+0  22024-2 0  9996
2 49294  87.9176 268.1162 0001837 126.6621 233.4681 13.20764169235171
ONEWEB-0369             
1 49295U 21090S   26199.79756731 -.00000062  00000+0 -18687-3 0  9995
2 49295  87.9183 298.6793 0001996 103.2857 256.8499 13.19726545230586
ONEWEB-0370             
1 49296U 21090T   26199.91451574 -.00000013  00000+0 -64184-4 0  9997
2 49296  87.9182 268.1180 0002322  93.0614 267.0785 13.20772191234057
ONEWEB-0371             
1 49297U 21090U   26199.80546678 -.00000012  00000+0 -61836-4 0  9996
2 49297  87.9193 298.6724 0002077 100.9026 259.2341 13.19725315230628
ONEWEB-0372             
1 49298U 21090V   26199.67700039  .00000087  00000+0  18201-3 0  9992
2 49298  87.9183 268.1675 0002061  98.9875 261.1492 13.20770555233996
ONEWEB-0373             
1 49299U 21090W   26199.70238343 -.00000320  00000+0 -81925-3 0  9996
2 49299  87.9178 268.1619 0002046  96.0017 264.1350 13.20771645235189
ONEWEB-0374             
1 49300U 21090X   26199.93596004  .00000033  00000+0  54949-4 0  9991
2 49300  87.8969 283.3728 0001494  90.3647 269.7654 13.14503377231734
ONEWEB-0375             
1 49301U 21090Y   26199.69060130 -.00000082  00000+0 -23301-3 0  9994
2 49301  87.9181 268.1565 0001559  86.8569 273.2742 13.20772282234682
ONEWEB-0376             
1 49302U 21090Z   26199.80387766 -.00000300  00000+0 -78183-3 0  9996
2 49302  87.9190 298.6726 0002092 105.4424 254.6940 13.19725173230629
ONEWEB-0377             
1 49303U 21090AA  26199.90453566 -.00000220  00000+0 -57413-3 0  9994
2 49303  87.9223 268.1218 0002467 101.2368 258.9043 13.20767314234701
ONEWEB-0378             
1 49304U 21090AB  26199.69748942  .00000054  00000+0  99892-4 0  9997
2 49304  87.9177 268.1605 0001906  98.3490 261.7859 13.20772012233942
ONEWEB-0379             
1 49305U 21090AC  26199.93121179  .00000089  00000+0  20539-3 0  9991
2 49305  87.8968 283.3839 0001889  99.6086 260.5257 13.14501966231738
ONEWEB-0380             
1 49306U 21090AD  26199.80072724 -.00000072  00000+0 -21290-3 0  9998
2 49306  87.9185 298.6764 0001971  95.4050 264.7308 13.19726532230593
ONEWEB-0381             
1 49307U 21090AE  26199.67376181  .00000023  00000+0  24701-4 0  9993
2 49307  87.9182 268.1667 0001819  94.5996 265.5345 13.20770051233988
ONEWEB-0382             
1 49308U 21090AF  26199.88758237  .00000027  00000+0  35022-4 0  9995
2 49308  87.9181 268.1176 0001760  98.1046 262.0287 13.20772367234007
ONEWEB-0383             
1 49309U 21090AG  26199.77263236  .00000076  00000+0  17024-3 0  9999
2 49309  87.8969 283.4078 0001878 102.1333 258.0008 13.14503179231747
ONEWEB-0384             
1 49310U 21090AH  26199.26918248 -.00000034  00000+0 -11434-3 0  9990
2 49310  87.9183 268.2850 0001584 100.6947 259.4364 13.20813983233932
ONEWEB-0385             
1 49311U 21090AJ  26199.88084020  .00000047  00000+0  83325-4 0  9992
2 49311  87.9181 268.1247 0001886  96.7197 263.4152 13.20771108233984
ONEWEB-0386             
1 49312U 21090AK  26199.74615088 -.00000205  00000+0 -53612-3 0  9995
2 49312  87.9187 268.1436 0001847  99.1333 261.0009 13.20771141233989
ONEWEB-0387             
1 49313U 21090AL  26199.73100892  .00000137  00000+0  30411-3 0  9991
2 49313  87.9171 268.1647 0001897  88.7857 271.3493 13.20770644233985
ONEWEB-0388             
1 49314U 21090AM  26199.79598739 -.00000118  00000+0 -32751-3 0  9999
2 49314  87.9186 298.6755 0001847 100.5928 259.5413 13.19725283230587
ONEWEB-0389             
1 50469U 21132A   26199.86408834 -.00000206  00000+0 -56311-3 0  9999
2 50469  87.9148 359.5665 0001684  84.7086 275.4238 13.17648291222250
ONEWEB-0390             
1 50470U 21132B   26199.86577585 -.00000166  00000+0 -46026-3 0  9998
2 50470  87.9149 359.5672 0002079  90.4231 269.7139 13.17648441222259
ONEWEB-0391             
1 50471U 21132C   26199.86746269 -.00000167  00000+0 -46300-3 0  9992
2 50471  87.9150 359.5766 0001890  68.6027 291.5306 13.17648464222250
ONEWEB-0392             
1 50472U 21132D   26199.82190426 -.00000151  00000+0 -42164-3 0  9994
2 50472  87.9162 359.5563 0001713  83.7821 276.3506 13.17648844222281
ONEWEB-0393             
1 50473U 21132E   26199.87338722  .00000002  00000+0 -27165-4 0  9992
2 50473  87.9145 359.5608 0001764  89.2917 270.8416 13.17647510222284
ONEWEB-0394             
1 50474U 21132F   26199.89036660  .00000096  00000+0  21018-3 0  9993
2 50474  87.9204 329.1385 0001744 102.7703 257.3624 13.18684982225771
